STARLINK-5069           
1 55640U 23021N   26068.69807820 -.00000186  00000+0 -78334-5 0  9996
2 55640  70.0013 184.3951 0003256 267.8989  92.1798 14.98330184168797
LEMUR-2-LIA-MARTIN      
1 63248U 25052AQ  26068.70341042  .00006911  00000+0  60828-3 0  9993
2 63248  97.6996 322.6614 0003817 139.7155 220.4350 14.96805944 53795
